QIANFAN-73              
1 63159U 25046A   25322.90464910  .00000041  00000+0  45564-4 0  9990
2 63159  88.9750 322.4926 0014620 185.7288 174.3698 13.50973802 44197
QIANFAN-74              
1 63160U 25046B   25322.96217753  .00000068  00000+0  85983-4 0  9997
2 63160  88.9750 322.3752 0002011  87.4754 272.6627 13.50975900 44265
QIANFAN-75              
1 63161U 25046C   25322.94954072  .00000128  00000+0  18006-3 0  9996
2 63161  88.9752 322.6097 0015648 189.2742 170.8122 13.50988352 44131
QIANFAN-76              
1 63162U 25046D   25322.94584536 -.00000092  00000+0 -16163-3 0  9995
2 63162  88.9750 322.5910 0013202 189.0240 171.0676 13.50966748 44141
QIANFAN-77              
1 63163U 25046E   25322.96173818  .00000077  00000+0  45844-4 0  9995
2 63163  88.9751 320.7912 0015798 148.0545 212.1593 13.96083719 45133
QIANFAN-78              
1 63164U 25046F   25322.91285648  .00000035  00000+0  35855-4 0  9991
2 63164  88.9750 322.4586 0014494 191.8560 168.2252 13.50974796 44219
QIANFAN-79              
1 63165U 25046G   25322.94154213  .00000045  00000+0  51659-4 0  9999
2 63165  88.9754 322.5623 0014238 189.8270 170.2605 13.50975441 44165
QIANFAN-80              
1 63166U 25046H   25322.95805955  .00000112  00000+0  15428-3 0  9995
2 63166  88.9752 322.2679 0013066 193.7924 166.2872 13.50979217 44324
